{
  "norad_id": 67201,
  "name": "STARLINK-36262",
  "history": [
    {
      "epoch": "2026-03-28T12:49:59.358720Z",
      "apogee_km": 574.3734220523738,
      "perigee_km": 569.6808102444329,
      "latitude_deg": -2.795328199625104e-05,
      "longitude_deg": 108.65018714160726,
      "height_km": 574.3940816086829,
      "semi_major_axis_km": 6950.164116148403,
      "eccentricity": 0.00033759,
      "inclination_deg": 70.0011,
      "raan_deg": 127.1013,
      "arg_perigee_deg": 271.4881,
      "mean_anomaly_deg": 88.5891,
      "mean_motion_rev_day": 14.98339305
    },
    {
      "epoch": "2026-03-29T04:51:19.845792Z",
      "apogee_km": 574.4232309699255,
      "perigee_km": 569.606775631637,
      "latitude_deg": 5.3821235007018604e-05,
      "longitude_deg": -134.02736097830922,
      "height_km": 574.32253033143,
      "semi_major_axis_km": 6950.152003300781,
      "eccentricity": 0.0003465,
      "inclination_deg": 69.9999,
      "raan_deg": 125.4171,
      "arg_perigee_deg": 272.8646,
      "mean_anomaly_deg": 87.2117,
      "mean_motion_rev_day": 14.98343222
    },
    {
      "epoch": "2026-03-30T04:53:20.715936Z",
      "apogee_km": 573.6887909094967,
      "perigee_km": 570.3680018830983,
      "latitude_deg": 3.9184318994177837e-05,
      "longitude_deg": -138.04061509256707,
      "height_km": 574.5313104692975,
      "semi_major_axis_km": 6950.165396396297,
      "eccentricity": 0.0002389,
      "inclination_deg": 70.0027,
      "raan_deg": 122.8945,
      "arg_perigee_deg": 267.3806,
      "mean_anomaly_deg": 92.708,
      "mean_motion_rev_day": 14.98338891
    }
  ]
}